{"fetched_at":"2026-07-14T17:40:28.416Z","source":"https://celestrak.org/NORAD/elements/gp.php?GROUP=spire&FORMAT=JSON","constellation":"spire","records":[{"OBJECT_NAME":"LEMUR-2-HUBBLE-4","OBJECT_ID":"2025-135AP","EPOCH":"2026-07-13T20:50:27.752064","CLASSIFICATION_TYPE":"U","MEAN_MOTION":14.93683552,"ECCENTRICITY":0.0002566,"INCLINATION":97.7718,"RA_OF_ASC_NODE":308.4649,"ARG_OF_PERICENTER":165.5181,"MEAN_ANOMALY":194.6112,"EPHEMERIS_TYPE":0,"NORAD_CAT_ID":64565,"ELEMENT_SET_NO":999,"REV_AT_EPOCH":5785,"BSTAR":0.00010517,"MEAN_MOTION_DOT":0.00001055,"MEAN_MOTION_DDOT":0},{"OBJECT_NAME":"LEMUR-2-SEJONG-2","OBJECT_ID":"2025-135BL","EPOCH":"2026-07-14T04:17:23.675136","CLASSIFICATION_TYPE":"U","MEAN_MOTION":14.9690703,"ECCENTRICITY":0.0003894,"INCLINATION":97.7706,"RA_OF_ASC_NODE":310.0207,"ARG_OF_PERICENTER":223.7088,"MEAN_ANOMALY":136.3826,"EPHEMERIS_TYPE":0,"NORAD_CAT_ID":64586,"ELEMENT_SET_NO":999,"REV_AT_EPOCH":5798,"BSTAR":0.00019196,"MEAN_MOTION_DOT":0.00002145,"MEAN_MOTION_DDOT":0},{"OBJECT_NAME":"LEMUR-2-HUBBLE-5","OBJECT_ID":"2025-135BT","EPOCH":"2026-07-13T21:03:51.590016","CLASSIFICATION_TYPE":"U","MEAN_MOTION":14.94211614,"ECCENTRICITY":0.0004246,"INCLINATION":97.7739,"RA_OF_ASC_NODE":309.1417,"ARG_OF_PERICENTER":240.7379,"MEAN_ANOMALY":119.3417,"EPHEMERIS_TYPE":0,"NORAD_CAT_ID":64840,"ELEMENT_SET_NO":999,"REV_AT_EPOCH":5789,"BSTAR":0.000091646,"MEAN_MOTION_DOT":0.00000925,"MEAN_MOTION_DDOT":0},{"OBJECT_NAME":"LEMUR-2-KARENDARRELL","OBJECT_ID":"2025-135BU","EPOCH":"2026-07-13T20:42:20.142432","CLASSIFICATION_TYPE":"U","MEAN_MOTION":15.00488219,"ECCENTRICITY":0.0012325,"INCLINATION":97.7713,"RA_OF_ASC_NODE":311.0352,"ARG_OF_PERICENTER":108.8027,"MEAN_ANOMALY":251.4535,"EPHEMERIS_TYPE":0,"NORAD_CAT_ID":64841,"ELEMENT_SET_NO":999,"REV_AT_EPOCH":5801,"BSTAR":0.00035249,"MEAN_MOTION_DOT":0.00004386,"MEAN_MOTION_DDOT":0},{"OBJECT_NAME":"LEMUR-2-LUCILLE-ROSE","OBJECT_ID":"2025-135BV","EPOCH":"2026-07-13T13:39:58.444416","CLASSIFICATION_TYPE":"U","MEAN_MOTION":15.00477141,"ECCENTRICITY":0.0014681,"INCLINATION":97.7706,"RA_OF_ASC_NODE":310.7769,"ARG_OF_PERICENTER":193.9631,"MEAN_ANOMALY":166.1189,"EPHEMERIS_TYPE":0,"NORAD_CAT_ID":65403,"ELEMENT_SET_NO":999,"REV_AT_EPOCH":5259,"BSTAR":0.00028939,"MEAN_MOTION_DOT":0.00003591,"MEAN_MOTION_DDOT":0},{"OBJECT_NAME":"OTTER SDM","OBJECT_ID":"2025-276N","EPOCH":"2026-07-14T04:13:03.478080","CLASSIFICATION_TYPE":"U","MEAN_MOTION":15.2004988,"ECCENTRICITY":0.0004268,"INCLINATION":97.4208,"RA_OF_ASC_NODE":268.2073,"ARG_OF_PERICENTER":258.7712,"MEAN_ANOMALY":101.3043,"EPHEMERIS_TYPE":0,"NORAD_CAT_ID":66678,"ELEMENT_SET_NO":999,"REV_AT_EPOCH":3451,"BSTAR":0.00016568,"MEAN_MOTION_DOT":0.00003505,"MEAN_MOTION_DDOT":0},{"OBJECT_NAME":"LEMUR-2-STAS-GORBUK","OBJECT_ID":"2025-276W","EPOCH":"2026-07-14T04:43:32.202336","CLASSIFICATION_TYPE":"U","MEAN_MOTION":15.19652714,"ECCENTRICITY":0.000355,"INCLINATION":97.4241,"RA_OF_ASC_NODE":268.2799,"ARG_OF_PERICENTER":253.3006,"MEAN_ANOMALY":106.7839,"EPHEMERIS_TYPE":0,"NORAD_CAT_ID":66686,"ELEMENT_SET_NO":999,"REV_AT_EPOCH":3451,"BSTAR":0.00014284,"MEAN_MOTION_DOT":0.00002977,"MEAN_MOTION_DDOT":0},{"OBJECT_NAME":"LEMUR-2-TEODOR","OBJECT_ID":"2025-276DG","EPOCH":"2026-07-14T03:37:26.807808","CLASSIFICATION_TYPE":"U","MEAN_MOTION":15.21330418,"ECCENTRICITY":0.000225,"INCLINATION":97.4147,"RA_OF_ASC_NODE":268.5054,"ARG_OF_PERICENTER":89.0429,"MEAN_ANOMALY":271.1064,"EPHEMERIS_TYPE":0,"NORAD_CAT_ID":66768,"ELEMENT_SET_NO":999,"REV_AT_EPOCH":3454,"BSTAR":0.00015612,"MEAN_MOTION_DOT":0.00003426,"MEAN_MOTION_DDOT":0},{"OBJECT_NAME":"LEMUR-2-LAILA","OBJECT_ID":"2025-276DQ","EPOCH":"2026-07-14T04:28:53.004576","CLASSIFICATION_TYPE":"U","MEAN_MOTION":15.21556874,"ECCENTRICITY":0.0002891,"INCLINATION":97.417,"RA_OF_ASC_NODE":268.6786,"ARG_OF_PERICENTER":95.5608,"MEAN_ANOMALY":264.5957,"EPHEMERIS_TYPE":0,"NORAD_CAT_ID":66776,"ELEMENT_SET_NO":999,"REV_AT_EPOCH":3455,"BSTAR":0.0001397,"MEAN_MOTION_DOT":0.00003079,"MEAN_MOTION_DDOT":0},{"OBJECT_NAME":"LEMUR-2-CELIJO-SB-PK","OBJECT_ID":"2025-276DW","EPOCH":"2026-07-14T04:25:35.793120","CLASSIFICATION_TYPE":"U","MEAN_MOTION":15.00277827,"ECCENTRICITY":0.0007048,"INCLINATION":97.52,"RA_OF_ASC_NODE":265.071,"ARG_OF_PERICENTER":66.7981,"MEAN_ANOMALY":293.3984,"EPHEMERIS_TYPE":0,"NORAD_CAT_ID":66781,"ELEMENT_SET_NO":999,"REV_AT_EPOCH":2667,"BSTAR":0.00022511,"MEAN_MOTION_DOT":0.00002764,"MEAN_MOTION_DDOT":0},{"OBJECT_NAME":"LEMUR-2-FINNIAN","OBJECT_ID":"2025-276DX","EPOCH":"2026-07-13T18:07:00.247008","CLASSIFICATION_TYPE":"U","MEAN_MOTION":15.00606139,"ECCENTRICITY":0.0008117,"INCLINATION":97.5311,"RA_OF_ASC_NODE":264.9238,"ARG_OF_PERICENTER":7.7708,"MEAN_ANOMALY":352.3641,"EPHEMERIS_TYPE":0,"NORAD_CAT_ID":66782,"ELEMENT_SET_NO":999,"REV_AT_EPOCH":2398,"BSTAR":0.0001323,"MEAN_MOTION_DOT":0.00001614,"MEAN_MOTION_DDOT":0},{"OBJECT_NAME":"LEMUR-2-STARLIGHT","OBJECT_ID":"2025-276DY","EPOCH":"2026-07-14T03:13:55.787808","CLASSIFICATION_TYPE":"U","MEAN_MOTION":14.99346444,"ECCENTRICITY":0.0014765,"INCLINATION":97.5234,"RA_OF_ASC_NODE":264.8524,"ARG_OF_PERICENTER":50.4955,"MEAN_ANOMALY":309.7571,"EPHEMERIS_TYPE":0,"NORAD_CAT_ID":66783,"ELEMENT_SET_NO":999,"REV_AT_EPOCH":3423,"BSTAR":0.00032171,"MEAN_MOTION_DOT":0.00003885,"MEAN_MOTION_DDOT":0},{"OBJECT_NAME":"LEMUR-2-TARTIFLETTE","OBJECT_ID":"2025-276DZ","EPOCH":"2026-07-14T04:47:42.796032","CLASSIFICATION_TYPE":"U","MEAN_MOTION":14.993327,"ECCENTRICITY":0.0013889,"INCLINATION":97.5236,"RA_OF_ASC_NODE":264.9231,"ARG_OF_PERICENTER":58.5182,"MEAN_ANOMALY":301.7397,"EPHEMERIS_TYPE":0,"NORAD_CAT_ID":66784,"ELEMENT_SET_NO":999,"REV_AT_EPOCH":3424,"BSTAR":0.00028677,"MEAN_MOTION_DOT":0.00003454,"MEAN_MOTION_DDOT":0},{"OBJECT_NAME":"LEMUR-2-VUKASIN","OBJECT_ID":"2025-276EA","EPOCH":"2026-07-14T04:06:10.824768","CLASSIFICATION_TYPE":"U","MEAN_MOTION":15.00541316,"ECCENTRICITY":0.0003249,"INCLINATION":97.5233,"RA_OF_ASC_NODE":265.2523,"ARG_OF_PERICENTER":57.2835,"MEAN_ANOMALY":302.8702,"EPHEMERIS_TYPE":0,"NORAD_CAT_ID":66785,"ELEMENT_SET_NO":999,"REV_AT_EPOCH":3419,"BSTAR":0.00021864,"MEAN_MOTION_DOT":0.000027,"MEAN_MOTION_DDOT":0},{"OBJECT_NAME":"LEMUR-2-HOTSPUR-TOM","OBJECT_ID":"2025-276EB","EPOCH":"2026-07-14T04:39:33.504192","CLASSIFICATION_TYPE":"U","MEAN_MOTION":14.99234912,"ECCENTRICITY":0.0013818,"INCLINATION":97.5222,"RA_OF_ASC_NODE":264.8922,"ARG_OF_PERICENTER":49.6288,"MEAN_ANOMALY":310.614,"EPHEMERIS_TYPE":0,"NORAD_CAT_ID":66786,"ELEMENT_SET_NO":999,"REV_AT_EPOCH":3417,"BSTAR":0.00024874,"MEAN_MOTION_DOT":0.00002981,"MEAN_MOTION_DDOT":0}]}
